start=new Date('2022-07-25T00:00:00.000Z').valueOf();
sats=[{"NORAD_CAT_ID":"51753","ECCENTRICITY":"0.00016860","OBJECT_NAME":"STARLINK-3507","COUNTRY_CODE":"US","APOAPSIS":"540.858","RCS_SIZE":"LARGE","REF_FRAME":"TEME","MEAN_MOTION_DOT":"-0.00022321","MEAN_ANOMALY":"48.0143","DECAY_DATE":null,"ARG_OF_PERICENTER":"60.4874","RA_OF_ASC_NODE":"131.7724","EPHEMERIS_TYPE":"0","OBJECT_ID":"2022-016AR","ELEMENT_SET_NO":"999","CLASSIFICATION_TYPE":"U","BSTAR":"-0.00138800000000","LAUNCH_DATE":"2022-02-21","EPOCH":"2022-07-24T22:00:00.999936","TLE_LINE1":"1 51753U 22016AR  22205.91667824 -.00022321  00000-0 -13880-2 0  9990","SEMIMAJOR_AXIS":"6917.827","GP_ID":"208801434","PERIAPSIS":"538.525","INCLINATION":"53.2164","MEAN_MOTION":"15.08857617","TLE_LINE2":"2 51753  53.2164 131.7724 0001686  60.4874  48.0143 15.08857617  1301","PERIOD":"95.436","TIME_SYSTEM":"UTC","MEAN_MOTION_DDOT":"0.0000000000000","FILE":"3521124","CENTER_NAME":"EARTH","OBJECT_TYPE":"PAYLOAD","MEAN_ELEMENT_THEORY":"SGP4","REV_AT_EPOCH":"130","SITE":"AFETR"},{"PERIOD":"95.437","TLE_LINE2":"2 51754  53.2162 131.7687 0002034  48.4719 134.8575 15.08843724  1307","INCLINATION":"53.2162","MEAN_MOTION":"15.08843724","PERIAPSIS":"538.327","GP_ID":"208799690","SEMIMAJOR_AXIS":"6917.869","TLE_LINE1":"1 51754U 22016AS  22205.91667824 -.00028915  00000-0 -18057-2 0  9997","EPOCH":"2022-07-24T22:00:00.999936","LAUNCH_DATE":"2022-02-21","BSTAR":"-0.00180570000000","SITE":"AFETR","REV_AT_EPOCH":"130","MEAN_ELEMENT_THEORY":"SGP4","CENTER_NAME":"EARTH","OBJECT_TYPE":"PAYLOAD","FILE":"3521124","MEAN_MOTION_DDOT":"0.0000000000000","TIME_SYSTEM":"UTC","APOAPSIS":"541.141","COUNTRY_CODE":"US","OBJECT_NAME":"STARLINK-3457","ECCENTRICITY":"0.00020340","NORAD_CAT_ID":"51754","CLASSIFICATION_TYPE":"U","ELEMENT_SET_NO":"999","OBJECT_ID":"2022-016AS","EPHEMERIS_TYPE":"0","RA_OF_ASC_NODE":"131.7687","ARG_OF_PERICENTER":"48.4719","DECAY_DATE":null,"MEAN_ANOMALY":"134.8575","MEAN_MOTION_DOT":"-0.00028915","REF_FRAME":"TEME","RCS_SIZE":"LARGE"},{"OBJECT_NAME":"STARLINK-3460","APOAPSIS":"541.112","COUNTRY_CODE":"US","ECCENTRICITY":"0.00020060","NORAD_CAT_ID":"51755","EPHEMERIS_TYPE":"0","RA_OF_ASC_NODE":"131.7712","CLASSIFICATION_TYPE":"U","ELEMENT_SET_NO":"999","OBJECT_ID":"2022-016AT","MEAN_ANOMALY":"115.5102","MEAN_MOTION_DOT":"-0.00027464","REF_FRAME":"TEME","RCS_SIZE":"LARGE","ARG_OF_PERICENTER":"53.0464","DECAY_DATE":null,"PERIAPSIS":"538.337","PERIOD":"95.437","TLE_LINE2":"2 51755  53.2166 131.7712 0002006  53.0464 115.5102 15.08846768  1302","MEAN_MOTION":"15.08846768","INCLINATION":"53.2166","EPOCH":"2022-07-24T22:00:00.999936","LAUNCH_DATE":"2022-02-21","BSTAR":"-0.00171370000000","GP_ID":"208799940","TLE_LINE1":"1 51755U 22016AT  22205.91667824 -.00027464  00000-0 -17137-2 0  9994","SEMIMAJOR_AXIS":"6917.860","MEAN_ELEMENT_THEORY":"SGP4","OBJECT_TYPE":"PAYLOAD","CENTER_NAME":"EARTH","SITE":"AFETR","REV_AT_EPOCH":"130","TIME_SYSTEM":"UTC","FILE":"3521124","MEAN_MOTION_DDOT":"0.0000000000000"},{"PERIOD":"95.437","TLE_LINE2":"2 51756  53.2176 131.7564 0001835  52.3526 276.2095 15.08844282  1304","MEAN_MOTION":"15.08844282","INCLINATION":"53.2176","PERIAPSIS":"538.463","GP_ID":"208801191","TLE_LINE1":"1 51756U 22016AU  22205.91667824 -.00046401  00000-0 -29158-2 0  9993","SEMIMAJOR_AXIS":"6917.867","EPOCH":"2022-07-24T22:00:00.999936","LAUNCH_DATE":"2022-02-21","BSTAR":"-0.00291580000000","SITE":"AFETR","REV_AT_EPOCH":"130","MEAN_ELEMENT_THEORY":"SGP4","CENTER_NAME":"EARTH","OBJECT_TYPE":"PAYLOAD","FILE":"3521124","MEAN_MOTION_DDOT":"0.0000000000000","TIME_SYSTEM":"UTC","APOAPSIS":"541.002","COUNTRY_CODE":"US","OBJECT_NAME":"STARLINK-3513","ECCENTRICITY":"0.00018350","NORAD_CAT_ID":"51756","CLASSIFICATION_TYPE":"U","ELEMENT_SET_NO":"999","OBJECT_ID":"2022-016AU","EPHEMERIS_TYPE":"0","RA_OF_ASC_NODE":"131.7564","ARG_OF_PERICENTER":"52.3526","DECAY_DATE":null,"MEAN_ANOMALY":"276.2095","MEAN_MOTION_DOT":"-0.00046401","REF_FRAME":"TEME","RCS_SIZE":"MEDIUM"},{"OBJECT_NAME":"STARLINK-3459","APOAPSIS":"540.983","COUNTRY_CODE":"US","ECCENTRICITY":"0.00018410","NORAD_CAT_ID":"51757","EPHEMERIS_TYPE":"0","RA_OF_ASC_NODE":"131.7556","CLASSIFICATION_TYPE":"U","ELEMENT_SET_NO":"999","OBJECT_ID":"2022-016AV","MEAN_ANOMALY":"293.7000","MEAN_MOTION_DOT":"-0.00019209","REF_FRAME":"TEME","RCS_SIZE":"LARGE","ARG_OF_PERICENTER":"54.8088","DECAY_DATE":null,"PERIAPSIS":"538.435","PERIOD":"95.437","TLE_LINE2":"2 51757  53.2172 131.7556 0001841  54.8088 293.7000 15.08851887  1308","MEAN_MOTION":"15.08851887","INCLINATION":"53.2172","EPOCH":"2022-07-24T22:00:00.999936","LAUNCH_DATE":"2022-02-21","BSTAR":"-0.00119160000000","GP_ID":"208800935","SEMIMAJOR_AXIS":"6917.844","TLE_LINE1":"1 51757U 22016AV  22205.91667824 -.00019209  00000-0 -11916-2 0  9993","MEAN_ELEMENT_THEORY":"SGP4","CENTER_NAME":"EARTH","OBJECT_TYPE":"PAYLOAD","SITE":"AFETR","REV_AT_EPOCH":"130","TIME_SYSTEM":"UTC","FILE":"3521124","MEAN_MOTION_DDOT":"0.0000000000000"},{"SEMIMAJOR_AXIS":"6917.871","TLE_LINE1":"1 51758U 22016AW  22205.91667824 -.00020054  00000-0 -12453-2 0  9991","GP_ID":"208800190","BSTAR":"-0.00124530000000","LAUNCH_DATE":"2022-02-21","EPOCH":"2022-07-24T22:00:00.999936","INCLINATION":"53.2164","MEAN_MOTION":"15.08843138","TLE_LINE2":"2 51758  53.2164 131.7535 0001725  65.1949 298.0611 15.08843138  1305","PERIOD":"95.437","PERIAPSIS":"538.542","MEAN_MOTION_DDOT":"0.0000000000000","FILE":"3521124","TIME_SYSTEM":"UTC","REV_AT_EPOCH":"130","SITE":"AFETR","OBJECT_TYPE":"PAYLOAD","CENTER_NAME":"EARTH","MEAN_ELEMENT_THEORY":"SGP4","NORAD_CAT_ID":"51758","ECCENTRICITY":"0.00017250","COUNTRY_CODE":"US","APOAPSIS":"540.929","OBJECT_NAME":"STARLINK-3458","DECAY_DATE":null,"ARG_OF_PERICENTER":"65.1949","RCS_SIZE":"LARGE","REF_FRAME":"TEME","MEAN_MOTION_DOT":"-0.00020054","MEAN_ANOMALY":"298.0611","OBJECT_ID":"2022-016AW","ELEMENT_SET_NO":"999","CLASSIFICATION_TYPE":"U","RA_OF_ASC_NODE":"131.7535","EPHEMERIS_TYPE":"0"},{"PERIAPSIS":"538.780","PERIOD":"95.437","TLE_LINE2":"2 51759  53.2171 131.7551 0001382  79.5322 289.0298 15.08843099  1302","INCLINATION":"53.2171","MEAN_MOTION":"15.08843099","EPOCH":"2022-07-24T22:00:00.999936","LAUNCH_DATE":"2022-02-21","BSTAR":"-0.00199550000000","GP_ID":"208800440","SEMIMAJOR_AXIS":"6917.871","TLE_LINE1":"1 51759U 22016AX  22205.91667824 -.00031909  00000-0 -19955-2 0  9997","MEAN_ELEMENT_THEORY":"SGP4","OBJECT_TYPE":"PAYLOAD","CENTER_NAME":"EARTH","SITE":"AFETR","REV_AT_EPOCH":"130","TIME_SYSTEM":"UTC","FILE":"3521124","MEAN_MOTION_DDOT":"0.0000000000000","OBJECT_NAME":"STARLINK-3456","APOAPSIS":"540.692","COUNTRY_CODE":"US","ECCENTRICITY":"0.00013820","NORAD_CAT_ID":"51759","EPHEMERIS_TYPE":"0","RA_OF_ASC_NODE":"131.7551","CLASSIFICATION_TYPE":"U","ELEMENT_SET_NO":"999","OBJECT_ID":"2022-016AX","MEAN_ANOMALY":"289.0298","MEAN_MOTION_DOT":"-0.00031909","REF_FRAME":"TEME","RCS_SIZE":"LARGE","ARG_OF_PERICENTER":"79.5322","DECAY_DATE":null},{"MEAN_MOTION_DOT":"-0.00009918","MEAN_ANOMALY":"142.0513","RCS_SIZE":"LARGE","REF_FRAME":"TEME","ARG_OF_PERICENTER":"61.5015","DECAY_DATE":null,"EPHEMERIS_TYPE":"0","RA_OF_ASC_NODE":"161.7589","ELEMENT_SET_NO":"999","CLASSIFICATION_TYPE":"U","OBJECT_ID":"2022-017A","NORAD_CAT_ID":"51768","ECCENTRICITY":"0.00019680","OBJECT_NAME":"STARLINK-3622","APOAPSIS":"541.113","COUNTRY_CODE":"US","TIME_SYSTEM":"UTC","FILE":"3521124","MEAN_MOTION_DDOT":"0.0000000000000","MEAN_ELEMENT_THEORY":"SGP4","CENTER_NAME":"EARTH","OBJECT_TYPE":"PAYLOAD","SITE":"AFWTR","REV_AT_EPOCH":"130","EPOCH":"2022-07-24T22:00:00.999936","BSTAR":"-0.00060589000000","LAUNCH_DATE":"2022-02-25","GP_ID":"208800692","SEMIMAJOR_AXIS":"6917.887","TLE_LINE1":"1 51768U 22017A   22205.91667824 -.00009918  00000-0 -60589-3 0  9993","PERIAPSIS":"538.390","TLE_LINE2":"2 51768  53.2149 161.7589 0001968  61.5015 142.0513 15.08837935  1301","PERIOD":"95.438","INCLINATION":"53.2149","MEAN_MOTION":"15.08837935"},{"RA_OF_ASC_NODE":"161.7588","EPHEMERIS_TYPE":"0","OBJECT_ID":"2022-017B","ELEMENT_SET_NO":"999","CLASSIFICATION_TYPE":"U","RCS_SIZE":"LARGE","REF_FRAME":"TEME","MEAN_MOTION_DOT":"0.00005761","MEAN_ANOMALY":"179.1796","DECAY_DATE":null,"ARG_OF_PERICENTER":"64.4136","OBJECT_NAME":"STARLINK-3621","COUNTRY_CODE":"US","APOAPSIS":"541.005","NORAD_CAT_ID":"51769","ECCENTRICITY":"0.00017890","OBJECT_TYPE":"PAYLOAD","CENTER_NAME":"EARTH","MEAN_ELEMENT_THEORY":"SGP4","REV_AT_EPOCH":"130","SITE":"AFWTR","TIME_SYSTEM":"UTC","MEAN_MOTION_DDOT":"0.0000000000000","FILE":"3521124","PERIAPSIS":"538.530","MEAN_MOTION":"15.08832741","INCLINATION":"53.2152","TLE_LINE2":"2 51769  53.2152 161.7588 0001789  64.4136 179.1796 15.08832741  1306","PERIOD":"95.438","BSTAR":"0.00037983000000","LAUNCH_DATE":"2022-02-25","EPOCH":"2022-07-24T22:00:00.999936","SEMIMAJOR_AXIS":"6917.903","TLE_LINE1":"1 51769U 22017B   22205.91667824  .00005761  00000-0  37983-3 0  9996","GP_ID":"208801435"},{"DECAY_DATE":null,"ARG_OF_PERICENTER":"61.0212","REF_FRAME":"TEME","RCS_SIZE":"LARGE","MEAN_ANOMALY":"162.5364","MEAN_MOTION_DOT":"-0.00026341","OBJECT_ID":"2022-017C","CLASSIFICATION_TYPE":"U","ELEMENT_SET_NO":"999","RA_OF_ASC_NODE":"161.7582","EPHEMERIS_TYPE":"0","ECCENTRICITY":"0.00021300","NORAD_CAT_ID":"51770","COUNTRY_CODE":"US","APOAPSIS":"541.210","OBJECT_NAME":"STARLINK-3612","MEAN_MOTION_DDOT":"0.0000000000000","FILE":"3521124","TIME_SYSTEM":"UTC","REV_AT_EPOCH":"130","SITE":"AFWTR","CENTER_NAME":"EARTH","OBJECT_TYPE":"PAYLOAD","MEAN_ELEMENT_THEORY":"SGP4","SEMIMAJOR_AXIS":"6917.872","TLE_LINE1":"1 51770U 22017C   22205.91667824 -.00026341  00000-0 -16428-2 0  9997","GP_ID":"208799691","LAUNCH_DATE":"2022-02-25","BSTAR":"-0.00164280000000","EPOCH":"2022-07-24T22:00:00.999936","MEAN_MOTION":"15.08842802","INCLINATION":"53.2145","PERIOD":"95.437","TLE_LINE2":"2 51770  53.2145 161.7582 0002130  61.0212 162.5364 15.08842802  1309","PERIAPSIS":"538.263"}];
